ONEWEB-0228             
1 48780U 21045P   24188.55569662 -.00000052  00000+0 -17366-3 0  9990
2 48780  87.9016  40.5939 0001904  81.2623 278.8723 13.15069692150898
